OBJECT_NAME,OBJECT_ID,EPOCH,MEAN_MOTION,ECCENTRICITY,INCLINATION,RA_OF_ASC_NODE,ARG_OF_PERICENTER,MEAN_ANOMALY,EPHEMERIS_TYPE,CLASSIFICATION_TYPE,NORAD_CAT_ID,ELEMENT_SET_NO,REV_AT_EPOCH,BSTAR,MEAN_MOTION_DOT,MEAN_MOTION_DDOT
CUTE-1 (CO-55),2003-031E,2026-05-21T11:35:54.082176,14.24317125,.0008295,98.6743,150.3782,262.0752,97.9485,0,U,27844,999,18787,.93673E-4,.173E-5,0
CUBESAT XI-IV (CO-57),2003-031J,2026-05-21T11:00:01.710432,14.23604667,.000822,98.6774,150.0876,283.6237,76.4026,0,U,27848,999,18757,.85962E-4,.152E-5,0
CUBESAT XI-V,2005-043F,2026-05-21T08:37:18.108768,14.72549818,.0012822,98.2957,296.4236,292.4191,67.5657,0,U,28895,999,9780,.139E-3,.831E-5,0
CUTE-1.7+APD II (CO-65),2008-021C,2026-05-21T17:31:16.287168,15.09164400,.0010718,97.8271,122.6071,114.1566,246.0784,0,U,32785,999,98120,.19168E-3,.298E-4,0
CANX-2,2008-021H,2026-05-21T15:16:02.669664,15.05393026,.0011594,97.8621,120.9053,128.8289,231.3974,0,U,32790,999,98081,.18286E-3,.256E-4,0
SEEDS II (CO-66),2008-021J,2026-05-21T10:12:59.215104,15.31723964,.0004608,97.7526,138.0681,67.6438,292.5291,0,U,32791,999,98319,.41774E-3,.12724E-3,0
SWISSCUBE,2009-051B,2026-05-21T11:38:55.389120,14.62422113,.0005675,98.4053,48.9075,304.3301,55.7362,0,U,35932,999,88525,.132E-3,.618E-5,0
BEESAT-1,2009-051C,2026-05-20T10:53:59.071488,14.61668848,.00045104,98.3982,47.5514,327.5835,32.5088,0,U,35933,999,88513,.11465798E-3,.522E-5,0
ITUPSAT1,2009-051E,2026-05-21T04:11:14.436096,14.60394013,.00068628,98.4067,47.5032,332.8166,27.2673,0,U,35935,999,88479,.1117307E-3,.492E-5,0
TISAT 1,2010-035E,2026-05-21T14:01:25.125312,15.30570380,.0002682,98.0703,85.7992,37.8015,322.3412,0,U,36799,999,86363,.47887E-3,.1408E-3,0
AEROCUBE 4.5A,2012-048K,2026-05-21T06:06:17.515296,15.80022698,.0018264,64.6283,124.2160,215.5677,144.4262,0,U,38767,999,36838,.77915E-3,.14966E-2,0
STRAND-1,2013-009E,2026-05-21T11:02:53.585952,14.37145301,.0007711,98.3916,322.3538,317.1880,42.8706,0,U,39090,999,69322,.67402E-4,.158E-5,0
BRITE-AUSTRIA,2013-009F,2026-05-21T11:04:53.469408,14.36530086,.0009416,98.3989,321.5600,325.9302,34.1279,0,U,39091,999,69321,.50168E-4,.105E-5,0
NEE-01 PEGASO,2013-018B,2026-05-20T07:53:49.185600,14.93503212,.00113766,98.1188,283.5678,253.7412,106.2555,0,U,39151,999,70654,.15394882E-3,.156E-4,0
POPACS 2,2013-055E,2026-05-21T12:45:19.414080,14.90574815,.0418298,80.9912,174.6932,279.5332,75.8856,0,U,39269,999,65924,.15217E-3,.885E-4,0
POPACS 3,2013-055F,2026-05-21T14:08:37.731840,14.55452630,.0554602,81.0016,258.0077,150.8826,212.4547,0,U,39270,999,63468,.28883E-3,.12174E-3,0
ZACUBE-1 (TSHEPISOSAT),2013-066B,2026-05-21T08:14:30.622272,15.00958035,.0040755,97.8120,103.5350,342.8760,17.1086,0,U,39417,999,67670,.24286E-3,.3087E-4,0
WNISAT-1,2013-066H,2026-05-21T09:04:40.442304,14.58023706,.0162118,97.7170,292.4423,316.7149,42.1407,0,U,39423,999,66282,.65762E-4,.31E-5,0
TRITON-1,2013-066M,2026-05-21T18:07:07.738752,14.81578223,.0089308,97.8262,52.1640,321.4568,38.0290,0,U,39427,999,67017,.18897E-3,.1531E-4,0
GOMX-1,2013-066Q,2026-05-21T15:04:42.231648,14.69340698,.0129141,97.6495,343.7662,162.1558,198.4247,0,U,39430,999,66601,.24287E-3,.1579E-4,0
CUBEBUG-2 (LO-74),2013-066AA,2026-05-21T08:00:19.306656,14.93524684,.0059444,97.8896,90.2065,115.7088,245.0285,0,U,39440,999,67298,.26533E-3,.2831E-4,0
NEE-02 KRYSAOR,2013-066AB,2026-05-21T18:08:40.984224,14.86501643,.0066792,97.8886,81.1639,155.1499,205.2958,0,U,39441,999,67227,.11781E-3,.1026E-4,0
FUNCUBE-1 (AO-73),2013-066AE,2026-05-21T16:05:12.300864,15.09105197,.0034844,97.8267,112.5725,295.4047,64.3576,0,U,39444,999,67566,.34898E-3,.5542E-4,0
UWE-3,2013-066AG,2026-05-21T08:14:57.890112,14.96763327,.0050387,97.8681,97.2451,50.5298,310.0364,0,U,39446,999,67356,.26964E-3,.3101E-4,0
BRITE-CA1 (TORONTO),2014-033L,2026-05-21T14:34:17.992416,14.72635475,.0078627,97.9704,271.0313,3.0610,357.1063,0,U,40020,999,63830,.67509E-4,.397E-5,0
DUCHIFAT-1,2014-033M,2026-05-21T16:34:16.958784,15.59344109,.0006205,98.0490,197.2432,164.7200,195.4243,0,U,40021,999,65161,.76548E-3,.606E-3,0
NANOSATC-BR1,2014-033Q,2026-05-21T12:56:22.338816,15.30507615,.000168,98.0740,171.5836,266.7816,93.3231,0,U,40024,999,64990,.37748E-3,.11053E-3,0
QB50P1,2014-033R,2026-05-21T10:53:54.552768,15.17791786,.0007537,98.0976,150.7353,327.3362,32.7403,0,U,40025,999,64897,.29138E-3,.5817E-4,0
QB50P2,2014-033Y,2026-05-21T06:49:03.095904,15.14768104,.0005678,98.0755,136.4992,266.1096,93.9485,0,U,40032,999,64859,.25695E-3,.4693E-4,0
PERSEUS-M2,2014-033AD,2026-05-21T18:25:15.314304,14.95418586,.001306,97.9967,91.7757,33.4198,326.7844,0,U,40037,999,64683,.65742E-4,.666E-5,0
